IRIDIUM 26              
1 24903U 97043A   25087.62610876  .00000921  00000+0  30398-3 0  9996
2 24903  86.3979 144.4646 0002288  88.3545 271.7914 14.37056654445177
IRIDIUM 22              
1 24907U 97043E   25087.76842875  .00000852  00000+0  28746-3 0  9998
2 24907  86.3991 147.8712 0002242  93.9936 266.1517 14.35881126445234
DUMMY MASS 1            
1 24925U 97048A   25087.59426322  .00001094  00000+0  11933-3 0  9998
2 24925  86.3411 172.5713 0008965  77.4204 282.8023 14.86894551493153
DUMMY MASS 2            
1 24926U 97048B   25087.94687100  .00001078  00000+0  11823-3 0  9991
2 24926  86.3413 173.9990 0009832  84.8411 275.3936 14.86648204492986
IRIDIUM 29              
1 24944U 97051A   25087.81955784  .00001009  00000+0  33819-3 0  9990
2 24944  86.4030 177.5792 0002236 100.5349 259.6100 14.36376013441735
IRIDIUM 33              
1 24946U 97051C   25087.64412390  .00000717  00000+0  24596-3 0  9991
2 24946  86.3946 176.9069 0007242 357.6604   2.4557 14.34830309441194
IRIDIUM 28              
1 24948U 97051E   25087.84496815  .00000978  00000+0  32170-3 0  9995
2 24948  86.4033 175.1333 0002132  83.3549 276.7892 14.37306031442308
IRIDIUM 36              
1 24967U 97056C   25087.40285790  .00001310  00000+0  43117-3 0  9995
2 24967  86.4021 206.8910 0001872  93.1566 266.9846 14.37512547440610
